OBJECT_NAME,OBJECT_ID,EPOCH,MEAN_MOTION,ECCENTRICITY,INCLINATION,RA_OF_ASC_NODE,ARG_OF_PERICENTER,MEAN_ANOMALY,EPHEMERIS_TYPE,CLASSIFICATION_TYPE,NORAD_CAT_ID,ELEMENT_SET_NO,REV_AT_EPOCH,BSTAR,MEAN_MOTION_DOT,MEAN_MOTION_DDOT
GAOFEN-11 01,2018-063A,2026-06-25T14:25:46.632288,15.55519365,.00022577,97.1291,243.4585,319.5646,40.5441,0,U,43585,999,44165,.32123493E-3,.2188E-3,0
ICESAT-2,2018-070A,2026-06-25T12:51:58.664160,15.28165330,.0006264,92.0079,293.2345,100.7040,259.4915,0,U,43613,999,43373,.44775345E-3,.12298E-3,0
HYSIS,2018-096A,2026-06-25T14:27:54.358272,14.78631484,.00018574,97.9839,243.2853,93.9288,266.2136,0,U,43719,999,40866,.16359334E-3,.1146E-4,0
KAZSTSAT,2018-099AB,2026-06-25T12:04:58.366848,14.99893682,.00085909,97.4285,208.0543,47.1630,313.0314,0,U,43783,999,41255,.15739665E-3,.1897E-4,0
SAUDISAT 5A,2018-102A,2026-06-25T14:41:35.613600,15.28128600,.0011303,97.3069,238.0307,103.4839,256.7661,0,U,43831,999,41696,.23146131E-3,.6285E-4,0
SAUDISAT 5B,2018-102C,2026-06-25T15:06:42.408864,15.28381288,.00120135,97.3177,241.1328,105.3711,254.8857,0,U,43833,999,41708,.21735952E-3,.5945E-4,0
GAOFEN-10R,2019-066A,2026-06-25T14:06:01.830816,14.83016723,.00071066,98.0499,130.2279,103.3491,256.8515,0,U,44622,999,36362,.14538766E-3,.1127E-4,0
CARTOSAT-3,2019-081A,2026-06-25T14:06:17.609184,15.19193664,.00132699,97.4306,238.3198,121.6536,238.5995,0,U,44804,999,36474,.22382614E-3,.4652E-4,0
GAOFEN-12 01,2019-082A,2026-06-25T14:17:55.103424,14.80464823,.00019663,97.8101,182.7532,61.5330,298.6080,0,U,44819,999,35533,.56294585E-4,.38E-5,0
CSG-1,2019-092A,2026-06-25T13:23:02.591232,14.82159696,.0001449,97.8890,0.0389,89.8064,270.3315,0,U,44873,999,35271,.59761152E-4,.424E-5,0
NEMO-HD,2020-061F,2026-06-25T14:47:12.810336,15.44753636,.00018774,97.1922,238.4841,74.9430,285.2027,0,U,46277,999,32328,.27859433E-3,.12945E-3,0
SENTINEL-6A,2020-086A,2026-06-25T12:25:27.940800,12.80930001,.00078819,66.0407,117.7501,270.0969,89.9143,0,U,46984,999,26139,-.34955393E-4,-.69E-6,0
CAS500-1,2021-022A,2026-06-25T14:53:10.763808,15.20162895,.00035022,97.3897,71.7028,253.8000,106.2850,0,U,47932,999,29204,.33922798E-3,.7276E-4,0
GAOFEN-12 02,2021-026A,2026-06-25T14:35:08.543328,14.80302042,.00043465,97.9923,174.7538,189.7660,170.3468,0,U,48079,999,28300,.51680954E-4,.341E-5,0
PLEIADES NEO 3,2021-034A,2026-06-25T15:03:07.776576,14.81669858,.00013232,97.8931,251.2727,92.1530,267.9834,0,U,48268,999,27890,.16704236E-3,.1263E-4,0
PLEIADES NEO 4,2021-073E,2026-06-25T14:14:28.826016,14.81679423,.00013974,97.8935,251.2358,87.1922,272.9451,0,U,49070,999,26261,.15836618E-3,.1195E-4,0
LANDSAT 9,2021-088A,2026-06-25T10:29:10.996512,14.57102305,.00012851,98.2278,246.5145,84.7124,275.4221,0,U,49260,999,25220,.78834419E-4,.31E-5,0
CSG-2,2022-008A,2026-06-25T10:57:10.601280,14.82159216,.00015109,97.8891,359.9338,87.9246,272.2140,0,U,51444,999,23781,.9182709E-5,.21E-6,0
GAOFEN-12 03,2022-069A,2026-06-25T15:20:22.005312,14.80044882,.00022886,97.8275,64.2955,94.9234,265.2240,0,U,52912,999,21586,.84528811E-4,.589E-5,0
SWOT,2022-173A,2026-06-25T13:30:22.978080,14.00170557,.00002874,77.6103,24.0030,87.4793,272.6392,0,U,54754,999,18032,.26576064E-4,.37E-6,0
GAOFEN-12 04,2023-123A,2026-06-25T04:21:22.464864,14.80242398,.00017577,97.9118,94.0845,80.1446,279.9964,0,U,57654,999,15381,.12350226E-3,.888E-5,0
PARS 1,2024-039Q,2026-06-25T14:24:36.072864,15.45888850,.00115131,97.4821,157.7856,87.0206,273.2360,0,U,59065,999,12994,.2674391E-3,.1294E-3,0
RESURS-P 4,2024-061A,2026-06-25T14:56:53.579040,15.32175414,.00027207,97.2749,124.3745,116.8951,243.2569,0,U,59371,999,12505,.11012365E-3,.3344E-4,0
LEGION 1,2024-081A,2026-06-25T12:57:22.159584,15.16719199,.00086993,97.5019,254.3076,348.7958,11.3080,0,U,59625,999,11880,.2097189E-3,.4047E-4,0
LEGION 2,2024-081B,2026-06-25T12:05:42.432576,15.16696284,.00101025,97.5018,254.3693,312.1254,47.9120,0,U,59626,999,11880,.22868916E-3,.4417E-4,0
ALOS-4 (DAICHI-4),2024-123A,2026-06-25T09:50:01.047840,14.79472317,.00015835,97.9216,273.4677,95.5508,264.5885,0,U,60182,999,10709,.24388586E-3,.177E-4,0
LEGION 3,2024-146A,2026-06-25T11:58:47.434368,15.16099992,.00086679,45.0026,345.9751,216.8243,143.2041,0,U,60452,999,10328,.2287931E-3,.4222E-4,0
LEGION 4,2024-146B,2026-06-25T05:43:48.457056,15.16089416,.00128841,45.0016,79.2821,351.7031,8.3633,0,U,60453,999,10209,.22294249E-3,.4109E-4,0
SENTINEL-2C,2024-157A,2026-06-25T11:51:40.383360,14.30819854,.00009286,98.5691,251.1588,87.4572,272.6717,0,U,60989,999,9417,.48631636E-4,.84E-6,0
IONOSFERA-M 1,2024-199A,2026-06-25T13:30:06.342624,14.22755771,.00021414,98.7165,49.6460,99.3303,260.8117,0,U,61735,999,12889,.42885668E-4,.52E-6,0
