GAOFEN-11 01            
1 43585U 18063A   26176.60123417  .00021880  00000+0  32123-3 0  9991
2 43585  97.1291 243.4585 0002257 319.5646  40.5441 15.55519365441650
ICESAT-2                
1 43613U 18070A   26176.53609565  .00012298  00000+0  44775-3 0  9995
2 43613  92.0079 293.2345 0006264 100.7040 259.4915 15.28165330433733
HYSIS                   
1 43719U 18096A   26176.60271248  .00001146  00000+0  16359-3 0  9998
2 43719  97.9839 243.2853 0001857  93.9288 266.2136 14.78631484408664
KAZSTSAT                
1 43783U 18099AB  26176.50345332  .00001897  00000+0  15740-3 0  9993
2 43783  97.4285 208.0543 0008590  47.1630 313.0314 14.99893682412558
SAUDISAT 5A             
1 43831U 18102A   26176.61221775  .00006285  00000+0  23146-3 0  9993
2 43831  97.3069 238.0307 0011303 103.4839 256.7661 15.28128600416966
SAUDISAT 5B             
1 43833U 18102C   26176.62965751  .00005945  00000+0  21736-3 0  9990
2 43833  97.3177 241.1328 0012013 105.3711 254.8857 15.28381288417088
GAOFEN-10R              
1 44622U 19066A   26176.58752119  .00001127  00000+0  14539-3 0  9995
2 44622  98.0499 130.2279 0007106 103.3491 256.8515 14.83016723363625
CARTOSAT-3              
1 44804U 19081A   26176.58770381  .00004652  00000+0  22383-3 0  9997
2 44804  97.4306 238.3198 0013269 121.6536 238.5995 15.19193664364740
GAOFEN-12 01            
1 44819U 19082A   26176.59577666  .00000380  00000+0  56295-4 0  9990
2 44819  97.8101 182.7532 0001966  61.5330 298.6080 14.80464823355334
CSG-1                   
1 44873U 19092A   26176.55766888  .00000424  00000+0  59761-4 0  9993
2 44873  97.8890   0.0389 0001449  89.8064 270.3315 14.82159696352712
NEMO-HD                 
1 46277U 20061F   26176.61612049  .00012945  00000+0  27859-3 0  9990
2 46277  97.1922 238.4841 0001877  74.9430 285.2027 15.44753636323286
SENTINEL-6A             
1 46984U 20086A   26176.51768450 -.00000069  00000+0 -34955-4 0  9991
2 46984  66.0407 117.7501 0007881 270.0969  89.9143 12.80930001261394
CAS500-1                
1 47932U 21022A   26176.62026347  .00007276  00000+0  33923-3 0  9998
2 47932  97.3897  71.7028 0003502 253.8000 106.2850 15.20162895292041
GAOFEN-12 02            
1 48079U 21026A   26176.60773777  .00000341  00000+0  51681-4 0  9997
2 48079  97.9923 174.7538 0004346 189.7660 170.3468 14.80302042283004
PLEIADES NEO 3          
1 48268U 21034A   26176.62717334  .00001263  00000+0  16704-3 0  9995
2 48268  97.8931 251.2727 0001323  92.1530 267.9834 14.81669858278903
PLEIADES NEO 4          
1 49070U 21073E   26176.59338919  .00001195  00000+0  15837-3 0  9994
2 49070  97.8935 251.2358 0001397  87.1922 272.9451 14.81679423262610
LANDSAT 9               
1 49260U 21088A   26176.43693283  .00000310  00000+0  78834-4 0  9997
2 49260  98.2278 246.5145 0001285  84.7124 275.4221 14.57102305252200
CSG-2                   
1 51444U 22008A   26176.45637270  .00000021  00000+0  91827-5 0  9990
2 51444  97.8891 359.9338 0001510  87.9246 272.2140 14.82159216237813
GAOFEN-12 03            
1 52912U 22069A   26176.63914358  .00000589  00000+0  84529-4 0  9992
2 52912  97.8275  64.2955 0002288  94.9234 265.2240 14.80044882215863
SWOT                    
1 54754U 22173A   26176.56276595  .00000037  00000+0  26576-4 0  9996
2 54754  77.6103  24.0030 0000287  87.4793 272.6392 14.00170557180320
GAOFEN-12 04            
1 57654U 23123A   26176.18151001  .00000888  00000+0  12350-3 0  9994
2 57654  97.9118  94.0845 0001757  80.1446 279.9964 14.80242398153812
PARS 1                  
1 59065U 24039Q   26176.60041751  .00012940  00000+0  26744-3 0  9990
2 59065  97.4821 157.7856 0011513  87.0206 273.2360 15.45888850129941
RESURS-P 4              
1 59371U 24061A   26176.62284235  .00003344  00000+0  11012-3 0  9993
2 59371  97.2749 124.3745 0002720 116.8951 243.2569 15.32175414125050
LEGION 1                
1 59625U 24081A   26176.53983981  .00004047  00000+0  20972-3 0  9997
2 59625  97.5019 254.3076 0008699 348.7958  11.3080 15.16719199118803
LEGION 2                
1 59626U 24081B   26176.50396334  .00004417  00000+0  22869-3 0  9993
2 59626  97.5018 254.3693 0010102 312.1254  47.9120 15.16696284118803
ALOS-4 (DAICHI-4)       
1 60182U 24123A   26176.40973435  .00001770  00000+0  24389-3 0  9999
2 60182  97.9216 273.4677 0001583  95.5508 264.5885 14.79472317107098
LEGION 3                
1 60452U 24146A   26176.49916012  .00004222  00000+0  22879-3 0  9998
2 60452  45.0026 345.9751 0008667 216.8243 143.2041 15.16099992103283
LEGION 4                
1 60453U 24146B   26176.23875529  .00004109  00000+0  22294-3 0  9993
2 60453  45.0016  79.2821 0012884 351.7031   8.3633 15.16089416102094
SENTINEL-2C             
1 60989U 24157A   26176.49421740  .00000084  00000+0  48632-4 0  9992
2 60989  98.5691 251.1588 0000928  87.4572 272.6717 14.30819854 94170
IONOSFERA-M 1           
1 61735U 24199A   26176.56257341  .00000052  00000+0  42886-4 0  9990
2 61735  98.7165  49.6460 0002141  99.3303 260.8117 14.22755771128898
